CCSDS_OMM_VERS = 2.0
CREATION_DATE  = 
ORIGINATOR     = 

OBJECT_NAME    = STARLINK-36073
OBJECT_ID      = 2025-280Z
CENTER_NAME    = EARTH
REF_FRAME      = TEME
TIME_SYSTEM    = UTC
MEAN_ELEMENT_THEORY = SGP/SGP4

EPOCH          = 2025-12-24T20:15:05.596992
MEAN_MOTION    = 15.52550025
ECCENTRICITY   = .0003336
INCLINATION    = 70.0007
RA_OF_ASC_NODE = 165.2117
ARG_OF_PERICENTER = 273.1979
MEAN_ANOMALY   = 86.8826

EPHEMERIS_TYPE = 0
CLASSIFICATION_TYPE = U
NORAD_CAT_ID   = 66844
ELEMENT_SET_NO = 999
REV_AT_EPOCH   = 478
BSTAR          = .15283E-2
MEAN_MOTION_DOT = .95091E-3
MEAN_MOTION_DDOT = 0

CCSDS_OMM_VERS = 2.0
CREATION_DATE  = 
ORIGINATOR     = 

OBJECT_NAME    = STARLINK-36068
OBJECT_ID      = 2025-280AA
CENTER_NAME    = EARTH
REF_FRAME      = TEME
TIME_SYSTEM    = UTC
MEAN_ELEMENT_THEORY = SGP/SGP4

EPOCH          = 2025-12-24T20:13:07.000032
MEAN_MOTION    = 15.52541980
ECCENTRICITY   = .0003259
INCLINATION    = 70.0010
RA_OF_ASC_NODE = 165.2058
ARG_OF_PERICENTER = 274.5103
MEAN_ANOMALY   = 85.5712

EPHEMERIS_TYPE = 0
CLASSIFICATION_TYPE = U
NORAD_CAT_ID   = 66845
ELEMENT_SET_NO = 999
REV_AT_EPOCH   = 481
BSTAR          = .86286E-3
MEAN_MOTION_DOT = .53317E-3
MEAN_MOTION_DDOT = 0

CCSDS_OMM_VERS = 2.0
CREATION_DATE  = 
ORIGINATOR     = 

OBJECT_NAME    = STARLINK-36055
OBJECT_ID      = 2025-280AB
CENTER_NAME    = EARTH
REF_FRAME      = TEME
TIME_SYSTEM    = UTC
MEAN_ELEMENT_THEORY = SGP/SGP4

EPOCH          = 2025-12-24T20:14:06.171936
MEAN_MOTION    = 15.52552371
ECCENTRICITY   = .0003215
INCLINATION    = 70.0008
RA_OF_ASC_NODE = 165.2085
ARG_OF_PERICENTER = 277.4111
MEAN_ANOMALY   = 82.6710

EPHEMERIS_TYPE = 0
CLASSIFICATION_TYPE = U
NORAD_CAT_ID   = 66846
ELEMENT_SET_NO = 999
REV_AT_EPOCH   = 481
BSTAR          = .10176E-2
MEAN_MOTION_DOT = .63008E-3
MEAN_MOTION_DDOT = 0

CCSDS_OMM_VERS = 2.0
CREATION_DATE  = 
ORIGINATOR     = 

OBJECT_NAME    = STARLINK-36061
OBJECT_ID      = 2025-280AC
CENTER_NAME    = EARTH
REF_FRAME      = TEME
TIME_SYSTEM    = UTC
MEAN_ELEMENT_THEORY = SGP/SGP4

EPOCH          = 2025-12-24T20:13:36.329376
MEAN_MOTION    = 15.52575803
ECCENTRICITY   = .0003365
INCLINATION    = 70.0009
RA_OF_ASC_NODE = 165.2072
ARG_OF_PERICENTER = 270.4876
MEAN_ANOMALY   = 89.5925

EPHEMERIS_TYPE = 0
CLASSIFICATION_TYPE = U
NORAD_CAT_ID   = 66847
ELEMENT_SET_NO = 999
REV_AT_EPOCH   = 481
BSTAR          = .967E-3
MEAN_MOTION_DOT = .59896E-3
MEAN_MOTION_DDOT = 0

CCSDS_OMM_VERS = 2.0
CREATION_DATE  = 
ORIGINATOR     = 

OBJECT_NAME    = STARLINK-36091
OBJECT_ID      = 2025-281A
CENTER_NAME    = EARTH
REF_FRAME      = TEME
TIME_SYSTEM    = UTC
MEAN_ELEMENT_THEORY = SGP/SGP4

EPOCH          = 2025-12-24T20:00:01.000224
MEAN_MOTION    = 15.56030848
ECCENTRICITY   = .000136
INCLINATION    = 43.0005
RA_OF_ASC_NODE = 48.9672
ARG_OF_PERICENTER = 280.1820
MEAN_ANOMALY   = 154.3106

EPHEMERIS_TYPE = 0
CLASSIFICATION_TYPE = U
NORAD_CAT_ID   = 66848
ELEMENT_SET_NO = 999
REV_AT_EPOCH   = 333
BSTAR          = -.3234E-1
MEAN_MOTION_DOT = -.2062541E-1
MEAN_MOTION_DDOT = 0

CCSDS_OMM_VERS = 2.0
CREATION_DATE  = 
ORIGINATOR     = 

OBJECT_NAME    = STARLINK-36102
OBJECT_ID      = 2025-281B
CENTER_NAME    = EARTH
REF_FRAME      = TEME
TIME_SYSTEM    = UTC
MEAN_ELEMENT_THEORY = SGP/SGP4

EPOCH          = 2025-12-24T20:00:01.000224
MEAN_MOTION    = 15.56020646
ECCENTRICITY   = .0001585
INCLINATION    = 43.0002
RA_OF_ASC_NODE = 48.9621
ARG_OF_PERICENTER = 281.0393
MEAN_ANOMALY   = 155.3711

EPHEMERIS_TYPE = 0
CLASSIFICATION_TYPE = U
NORAD_CAT_ID   = 66849
ELEMENT_SET_NO = 999
REV_AT_EPOCH   = 333
BSTAR          = -.3203E-1
MEAN_MOTION_DOT = -.2044298E-1
MEAN_MOTION_DDOT = 0

CCSDS_OMM_VERS = 2.0
CREATION_DATE  = 
ORIGINATOR     = 

OBJECT_NAME    = STARLINK-36105
OBJECT_ID      = 2025-281C
CENTER_NAME    = EARTH
REF_FRAME      = TEME
TIME_SYSTEM    = UTC
MEAN_ELEMENT_THEORY = SGP/SGP4

EPOCH          = 2025-12-24T20:00:01.000224
MEAN_MOTION    = 15.56032204
ECCENTRICITY   = .0001647
INCLINATION    = 43.0002
RA_OF_ASC_NODE = 48.9570
ARG_OF_PERICENTER = 279.6803
MEAN_ANOMALY   = 158.6477

EPHEMERIS_TYPE = 0
CLASSIFICATION_TYPE = U
NORAD_CAT_ID   = 66850
ELEMENT_SET_NO = 999
REV_AT_EPOCH   = 333
BSTAR          = -.32389E-1
MEAN_MOTION_DOT = -.206557E-1
MEAN_MOTION_DDOT = 0

CCSDS_OMM_VERS = 2.0
CREATION_DATE  = 
ORIGINATOR     = 

OBJECT_NAME    = STARLINK-36094
OBJECT_ID      = 2025-281D
CENTER_NAME    = EARTH
REF_FRAME      = TEME
TIME_SYSTEM    = UTC
MEAN_ELEMENT_THEORY = SGP/SGP4

EPOCH          = 2025-12-24T20:00:01.000224
MEAN_MOTION    = 15.56031445
ECCENTRICITY   = .0001569
INCLINATION    = 43.0003
RA_OF_ASC_NODE = 48.9523
ARG_OF_PERICENTER = 282.9073
MEAN_ANOMALY   = 157.3368

EPHEMERIS_TYPE = 0
CLASSIFICATION_TYPE = U
NORAD_CAT_ID   = 66851
ELEMENT_SET_NO = 999
REV_AT_EPOCH   = 333
BSTAR          = -.32365E-1
MEAN_MOTION_DOT = -.2064095E-1
MEAN_MOTION_DDOT = 0

CCSDS_OMM_VERS = 2.0
CREATION_DATE  = 
ORIGINATOR     = 

OBJECT_NAME    = STARLINK-35992
OBJECT_ID      = 2025-281E
CENTER_NAME    = EARTH
REF_FRAME      = TEME
TIME_SYSTEM    = UTC
MEAN_ELEMENT_THEORY = SGP/SGP4

EPOCH          = 2025-12-24T20:00:01.000224
MEAN_MOTION    = 15.56025306
ECCENTRICITY   = .0001525
INCLINATION    = 43.0003
RA_OF_ASC_NODE = 48.9478
ARG_OF_PERICENTER = 280.7356
MEAN_ANOMALY   = 161.4282

EPHEMERIS_TYPE = 0
CLASSIFICATION_TYPE = U
NORAD_CAT_ID   = 66852
ELEMENT_SET_NO = 999
REV_AT_EPOCH   = 333
BSTAR          = -.3221E-1
MEAN_MOTION_DOT = -.205487E-1
MEAN_MOTION_DDOT = 0

CCSDS_OMM_VERS = 2.0
CREATION_DATE  = 
ORIGINATOR     = 

OBJECT_NAME    = STARLINK-35986
OBJECT_ID      = 2025-281F
CENTER_NAME    = EARTH
REF_FRAME      = TEME
TIME_SYSTEM    = UTC
MEAN_ELEMENT_THEORY = SGP/SGP4

EPOCH          = 2025-12-24T20:00:01.000224
MEAN_MOTION    = 15.56027834
ECCENTRICITY   = .0001443
INCLINATION    = 42.9996
RA_OF_ASC_NODE = 48.9433
ARG_OF_PERICENTER = 285.9822
MEAN_ANOMALY   = 158.0960

EPHEMERIS_TYPE = 0
CLASSIFICATION_TYPE = U
NORAD_CAT_ID   = 66853
ELEMENT_SET_NO = 999
REV_AT_EPOCH   = 333
BSTAR          = -.32254E-1
MEAN_MOTION_DOT = -.2057461E-1
MEAN_MOTION_DDOT = 0

CCSDS_OMM_VERS = 2.0
CREATION_DATE  = 
ORIGINATOR     = 

OBJECT_NAME    = STARLINK-36087
OBJECT_ID      = 2025-281G
CENTER_NAME    = EARTH
REF_FRAME      = TEME
TIME_SYSTEM    = UTC
MEAN_ELEMENT_THEORY = SGP/SGP4

EPOCH          = 2025-12-24T20:00:01.000224
MEAN_MOTION    = 15.56023273
ECCENTRICITY   = .0001521
INCLINATION    = 42.9995
RA_OF_ASC_NODE = 48.9380
ARG_OF_PERICENTER = 287.6408
MEAN_ANOMALY   = 158.3560

EPHEMERIS_TYPE = 0
CLASSIFICATION_TYPE = U
NORAD_CAT_ID   = 66854
ELEMENT_SET_NO = 999
REV_AT_EPOCH   = 333
BSTAR          = -.32164E-1
MEAN_MOTION_DOT = -.2052068E-1
MEAN_MOTION_DDOT = 0

CCSDS_OMM_VERS = 2.0
CREATION_DATE  = 
ORIGINATOR     = 

OBJECT_NAME    = STARLINK-36090
OBJECT_ID      = 2025-281H
CENTER_NAME    = EARTH
REF_FRAME      = TEME
TIME_SYSTEM    = UTC
MEAN_ELEMENT_THEORY = SGP/SGP4

EPOCH          = 2025-12-24T20:00:01.000224
MEAN_MOTION    = 15.56024136
ECCENTRICITY   = .0001347
INCLINATION    = 42.9998
RA_OF_ASC_NODE = 48.9333
ARG_OF_PERICENTER = 284.2472
MEAN_ANOMALY   = 163.6668

EPHEMERIS_TYPE = 0
CLASSIFICATION_TYPE = U
NORAD_CAT_ID   = 66855
ELEMENT_SET_NO = 999
REV_AT_EPOCH   = 321
BSTAR          = -.32188E-1
MEAN_MOTION_DOT = -.2053406E-1
MEAN_MOTION_DDOT = 0

