STARLINK-36073          
1 66844U 25280Z   25358.84381478  .00095091  00000+0  15283-2 0  9995
2 66844  70.0007 165.2117 0003336 273.1979  86.8826 15.52550025  4787
STARLINK-36068          
1 66845U 25280AA  25358.84244213  .00053317  00000+0  86286-3 0  9998
2 66845  70.0010 165.2058 0003259 274.5103  85.5712 15.52541980  4818
STARLINK-36055          
1 66846U 25280AB  25358.84312699  .00063008  00000+0  10176-2 0  9995
2 66846  70.0008 165.2085 0003215 277.4111  82.6710 15.52552371  4811
STARLINK-36061          
1 66847U 25280AC  25358.84278159  .00059896  00000+0  96700-3 0  9996
2 66847  70.0009 165.2072 0003365 270.4876  89.5925 15.52575803  4815
STARLINK-36091          
1 66848U 25281A   25358.83334491 -.02062541  00000+0 -32340-1 0  9992
2 66848  43.0005  48.9672 0001360 280.1820 154.3106 15.56030848  3332
STARLINK-36102          
1 66849U 25281B   25358.83334491 -.02044298  00000+0 -32030-1 0  9998
2 66849  43.0002  48.9621 0001585 281.0393 155.3711 15.56020646  3336
STARLINK-36105          
1 66850U 25281C   25358.83334491 -.02065570  00000+0 -32389-1 0  9993
2 66850  43.0002  48.9570 0001647 279.6803 158.6477 15.56032204  3337
STARLINK-36094          
1 66851U 25281D   25358.83334491 -.02064095  00000+0 -32365-1 0  9999
2 66851  43.0003  48.9523 0001569 282.9073 157.3368 15.56031445  3337
STARLINK-35992          
1 66852U 25281E   25358.83334491 -.02054870  00000+0 -32210-1 0  9999
2 66852  43.0003  48.9478 0001525 280.7356 161.4282 15.56025306  3339
STARLINK-35986          
1 66853U 25281F   25358.83334491 -.02057461  00000+0 -32254-1 0  9997
2 66853  42.9996  48.9433 0001443 285.9822 158.0960 15.56027834  3337
STARLINK-36087          
1 66854U 25281G   25358.83334491 -.02052068  00000+0 -32164-1 0  9996
2 66854  42.9995  48.9380 0001521 287.6408 158.3560 15.56023273  3336
STARLINK-36090          
1 66855U 25281H   25358.83334491 -.02053406  00000+0 -32188-1 0  9990
2 66855  42.9998  48.9333 0001347 284.2472 163.6668 15.56024136  3212
